{
  "type": "FeatureCollection",
  "features": [
    {
      "type": "Feature",
      "properties": {
        "norad_id": 33698,
        "name": "FENGYUN 1C DEB",
        "group": "fengyun-1c-debris",
        "lat": -46.30346319888256,
        "lon": -43.53150941923347,
        "alt_km": 718.5081777888954,
        "timestamp": "2025-12-12T05:47:29.058139+00:00",
        "meta_object_name": "FENGYUN 1C DEB",
        "meta_object_id": "1999-025DGK",
        "meta_epoch": "2025-12-11T15:09:49.005216",
        "meta_mean_motion": 14.55711435,
        "meta_eccentricity": 0.01373722,
        "meta_inclination": 99.6214,
        "meta_ra_of_asc_node": 305.5407,
        "meta_arg_of_pericenter": 221.1507,
        "meta_mean_anomaly": 137.9264,
        "meta_ephemeris_type": 0,
        "meta_classification_type": "U",
        "meta_norad_cat_id": 33698,
        "meta_element_set_no": 999,
        "meta_rev_at_epoch": 95620,
        "meta_bstar": 0.00044856589,
        "meta_mean_motion_dot": 2.159e-05,
        "meta_mean_motion_ddot": 0,
        "tle_line1": "1 33698U 99025DGK 25345.63181719  .00002159  00000+0  44857-3 0  9996",
        "tle_line2": "2 33698  99.6214 305.5407 0137372 221.1507 137.9264 14.55711435956207"
      },
      "geometry": {
        "type": "Point",
        "coordinates": [
          -43.53150941923347,
          -46.30346319888256
        ]
      }
    },
    {
      "type": "Feature",
      "properties": {
        "norad_id": 33701,
        "name": "FENGYUN 1C DEB",
        "group": "fengyun-1c-debris",
        "lat": 61.21873242160109,
        "lon": 136.77129784078178,
        "alt_km": 849.7832721223585,
        "timestamp": "2025-12-12T05:47:29.058149+00:00",
        "meta_object_name": "FENGYUN 1C DEB",
        "meta_object_id": "1999-025DGN",
        "meta_epoch": "2025-11-19T19:29:54.481632",
        "meta_mean_motion": 14.02181122,
        "meta_eccentricity": 0.01331995,
        "meta_inclination": 98.6598,
        "meta_ra_of_asc_node": 279.346,
        "meta_arg_of_pericenter": 252.9525,
        "meta_mean_anomaly": 105.7013,
        "meta_ephemeris_type": 0,
        "meta_classification_type": "U",
        "meta_norad_cat_id": 33701,
        "meta_element_set_no": 999,
        "meta_rev_at_epoch": 90184,
        "meta_bstar": 0.0018411078,
        "meta_mean_motion_dot": 3.003e-05,
        "meta_mean_motion_ddot": 0,
        "tle_line1": "1 33701U 99025DGN 25323.81243613  .00003003  00000+0  18411-2 0  9994",
        "tle_line2": "2 33701  98.6598 279.3460 0133199 252.9525 105.7013 14.02181122901849"
      },
      "geometry": {
        "type": "Point",
        "coordinates": [
          136.77129784078178,
          61.21873242160109
        ]
      }
    },
    {
      "type": "Feature",
      "properties": {
        "norad_id": 33710,
        "name": "FENGYUN 1C DEB",
        "group": "fengyun-1c-debris",
        "lat": 38.17770004021699,
        "lon": -87.77320543590534,
        "alt_km": 810.6441323599975,
        "timestamp": "2025-12-12T05:47:29.058160+00:00",
        "meta_object_name": "FENGYUN 1C DEB",
        "meta_object_id": "1999-025DGX",
        "meta_epoch": "2025-12-11T05:18:37.844640",
        "meta_mean_motion": 14.11630786,
        "meta_eccentricity": 0.00561161,
        "meta_inclination": 98.9793,
        "meta_ra_of_asc_node": 84.0646,
        "meta_arg_of_pericenter": 151.6019,
        "meta_mean_anomaly": 208.823,
        "meta_ephemeris_type": 0,
        "meta_classification_type": "U",
        "meta_norad_cat_id": 33710,
        "meta_element_set_no": 999,
        "meta_rev_at_epoch": 67635,
        "meta_bstar": 0.0016514968,
        "meta_mean_motion_dot": 3.003e-05,
        "meta_mean_motion_ddot": 0,
        "tle_line1": "1 33710U 99025DGX 25345.22127135  .00003003  00000+0  16515-2 0  9996",
        "tle_line2": "2 33710  98.9793  84.0646 0056116 151.6019 208.8230 14.11630786676358"
      },
      "geometry": {
        "type": "Point",
        "coordinates": [
          -87.77320543590534,
          38.17770004021699
        ]
      }
    },
    {
      "type": "Feature",
      "properties": {
        "norad_id": 33711,
        "name": "FENGYUN 1C DEB",
        "group": "fengyun-1c-debris",
        "lat": -52.4322825493268,
        "lon": 51.85241437400925,
        "alt_km": 912.6202904030761,
        "timestamp": "2025-12-12T05:47:29.058170+00:00",
        "meta_object_name": "FENGYUN 1C DEB",
        "meta_object_id": "1999-025DGY",
        "meta_epoch": "2025-12-11T15:19:43.152960",
        "meta_mean_motion": 14.00916692,
        "meta_eccentricity": 0.00966818,
        "meta_inclination": 99.1833,
        "meta_ra_of_asc_node": 39.1066,
        "meta_arg_of_pericenter": 51.2652,
        "meta_mean_anomaly": 98.9697,
        "meta_ephemeris_type": 0,
        "meta_classification_type": "U",
        "meta_norad_cat_id": 33711,
        "meta_element_set_no": 999,
        "meta_rev_at_epoch": 91916,
        "meta_bstar": 0.00084092246,
        "meta_mean_motion_dot": 1.265e-05,
        "meta_mean_motion_ddot": 0,
        "tle_line1": "1 33711U 99025DGY 25345.63869390  .00001265  00000+0  84092-3 0  9992",
        "tle_line2": "2 33711  99.1833  39.1066 0096681  51.2652  98.9697 14.00916692919168"
      },
      "geometry": {
        "type": "Point",
        "coordinates": [
          51.85241437400925,
          -52.4322825493268
        ]
      }
    },
    {
      "type": "Feature",
      "properties": {
        "norad_id": 33716,
        "name": "FENGYUN 1C DEB",
        "group": "fengyun-1c-debris",
        "lat": -10.607611888909164,
        "lon": 90.13441258163344,
        "alt_km": 852.8196176627989,
        "timestamp": "2025-12-12T05:47:29.058180+00:00",
        "meta_object_name": "FENGYUN 1C DEB",
        "meta_object_id": "1999-025DHD",
        "meta_epoch": "2025-12-11T13:49:05.653632",
        "meta_mean_motion": 14.326674,
        "meta_eccentricity": 0.00936908,
        "meta_inclination": 98.8737,
        "meta_ra_of_asc_node": 271.1298,
        "meta_arg_of_pericenter": 1.3364,
        "meta_mean_anomaly": 358.8052,
        "meta_ephemeris_type": 0,
        "meta_classification_type": "U",
        "meta_norad_cat_id": 33716,
        "meta_element_set_no": 999,
        "meta_rev_at_epoch": 65141,
        "meta_bstar": 0.00030982602,
        "meta_mean_motion_dot": 8.37e-06,
        "meta_mean_motion_ddot": 0,
        "tle_line1": "1 33716U 99025DHD 25345.57575988  .00000837  00000+0  30983-3 0  9991",
        "tle_line2": "2 33716  98.8737 271.1298 0093690   1.3364 358.8052 14.32667400651419"
      },
      "geometry": {
        "type": "Point",
        "coordinates": [
          90.13441258163344,
          -10.607611888909164
        ]
      }
    },
    {
      "type": "Feature",
      "properties": {
        "norad_id": 33718,
        "name": "FENGYUN 1C DEB",
        "group": "fengyun-1c-debris",
        "lat": -31.45098290218401,
        "lon": 78.78894158350414,
        "alt_km": 801.54295343793,
        "timestamp": "2025-12-12T05:47:29.058190+00:00",
        "meta_object_name": "FENGYUN 1C DEB",
        "meta_object_id": "1999-025DHF",
        "meta_epoch": "2025-12-11T12:53:11.119200",
        "meta_mean_motion": 14.08062105,
        "meta_eccentricity": 0.00978602,
        "meta_inclination": 99.6588,
        "meta_ra_of_asc_node": 72.057,
        "meta_arg_of_pericenter": 323.1333,
        "meta_mean_anomaly": 36.3133,
        "meta_ephemeris_type": 0,
        "meta_classification_type": "U",
        "meta_norad_cat_id": 33718,
        "meta_element_set_no": 999,
        "meta_rev_at_epoch": 69169,
        "meta_bstar": 0.0025519977,
        "meta_mean_motion_dot": 4.491e-05,
        "meta_mean_motion_ddot": 0,
        "tle_line1": "1 33718U 99025DHF 25345.53693425  .00004491  00000+0  25520-2 0  9996",
        "tle_line2": "2 33718  99.6588  72.0570 0097860 323.1333  36.3133 14.08062105691695"
      },
      "geometry": {
        "type": "Point",
        "coordinates": [
          78.78894158350414,
          -31.45098290218401
        ]
      }
    },
    {
      "type": "Feature",
      "properties": {
        "norad_id": 33719,
        "name": "FENGYUN 1C DEB",
        "group": "fengyun-1c-debris",
        "lat": 6.777774202244311,
        "lon": -132.73644745740782,
        "alt_km": 816.1442509864228,
        "timestamp": "2025-12-12T05:47:29.058201+00:00",
        "meta_object_name": "FENGYUN 1C DEB",
        "meta_object_id": "1999-025DHG",
        "meta_epoch": "2025-12-11T16:12:52.718688",
        "meta_mean_motion": 14.23471449,
        "meta_eccentricity": 0.00305317,
        "meta_inclination": 98.7732,
        "meta_ra_of_asc_node": 45.648,
        "meta_arg_of_pericenter": 83.1061,
        "meta_mean_anomaly": 72.2822,
        "meta_ephemeris_type": 0,
        "meta_classification_type": "U",
        "meta_norad_cat_id": 33719,
        "meta_element_set_no": 999,
        "meta_rev_at_epoch": 91998,
        "meta_bstar": 0.0014848334,
        "meta_mean_motion_dot": 3.348e-05,
        "meta_mean_motion_ddot": 0,
        "tle_line1": "1 33719U 99025DHG 25345.67561017  .00003348  00000+0  14848-2 0  9994",
        "tle_line2": "2 33719  98.7732  45.6480 0030531  83.1061  72.2822 14.23471449919987"
      },
      "geometry": {
        "type": "Point",
        "coordinates": [
          -132.73644745740782,
          6.777774202244311
        ]
      }
    }
  ]
}